start=new Date('2022-09-27T00:00:00.000Z').valueOf();
sats=[{"CENTER_NAME":"EARTH","PERIAPSIS":"546.151","TLE_LINE1":"1 46061U 20055AL  22269.78363443 -.00001671  00000-0 -93356-4 0  9995","COUNTRY_CODE":"US","CLASSIFICATION_TYPE":"U","RA_OF_ASC_NODE":"12.5662","APOAPSIS":"548.337","REV_AT_EPOCH":"11913","EPOCH":"2022-09-26T18:48:26.014752","DECAY_DATE":null,"SEMIMAJOR_AXIS":"6925.379","MEAN_MOTION_DOT":"-0.00001671","PERIOD":"95.593","TIME_SYSTEM":"UTC","TLE_LINE2":"2 46061  53.0562  12.5662 0001578  63.8685 296.2466 15.06390023119138","MEAN_ANOMALY":"296.2466","LAUNCH_DATE":"2020-08-07","OBJECT_TYPE":"PAYLOAD","MEAN_ELEMENT_THEORY":"SGP4","REF_FRAME":"TEME","INCLINATION":"53.0562","RCS_SIZE":"LARGE","OBJECT_NAME":"STARLINK-1573","SITE":"AFETR","GP_ID":"213595905","OBJECT_ID":"2020-055AL","ELEMENT_SET_NO":"999","ARG_OF_PERICENTER":"63.8685","BSTAR":"-0.00009335600000","ECCENTRICITY":"0.00015780","NORAD_CAT_ID":"46061","FILE":"3584555","EPHEMERIS_TYPE":"0","MEAN_MOTION":"15.06390023","MEAN_MOTION_DDOT":"0.0000000000000"},{"BSTAR":"-0.00009071000000","ECCENTRICITY":"0.00017380","NORAD_CAT_ID":"46062","FILE":"3584493","MEAN_MOTION":"15.06392086","MEAN_MOTION_DDOT":"0.0000000000000","EPHEMERIS_TYPE":"0","MEAN_ELEMENT_THEORY":"SGP4","REF_FRAME":"TEME","INCLINATION":"53.0556","RCS_SIZE":"LARGE","OBJECT_NAME":"STARLINK-1574","GP_ID":"213575189","SITE":"AFETR","OBJECT_ID":"2020-055AM","ARG_OF_PERICENTER":"58.5600","ELEMENT_SET_NO":"999","DECAY_DATE":null,"EPOCH":"2022-09-26T13:14:02.574816","REV_AT_EPOCH":"11856","SEMIMAJOR_AXIS":"6925.373","PERIOD":"95.593","MEAN_MOTION_DOT":"-0.00001632","TLE_LINE2":"2 46062  53.0556  13.5889 0001738  58.5600 301.5559 15.06392086118560","TIME_SYSTEM":"UTC","LAUNCH_DATE":"2020-08-07","MEAN_ANOMALY":"301.5559","OBJECT_TYPE":"PAYLOAD","CENTER_NAME":"EARTH","TLE_LINE1":"1 46062U 20055AM  22269.55141869 -.00001632  00000-0 -90710-4 0  9995","PERIAPSIS":"546.034","CLASSIFICATION_TYPE":"U","COUNTRY_CODE":"US","APOAPSIS":"548.441","RA_OF_ASC_NODE":"13.5889"},{"MEAN_ANOMALY":"283.4963","LAUNCH_DATE":"2020-08-07","OBJECT_TYPE":"PAYLOAD","EPOCH":"2022-09-26T13:08:44.099232","REV_AT_EPOCH":"11855","DECAY_DATE":null,"SEMIMAJOR_AXIS":"6925.383","MEAN_MOTION_DOT":"-0.00000880","PERIOD":"95.593","TIME_SYSTEM":"UTC","TLE_LINE2":"2 46063  53.0555  13.6217 0001471  76.6190 283.4963 15.06388690118557","RA_OF_ASC_NODE":"13.6217","APOAPSIS":"548.267","CENTER_NAME":"EARTH","PERIAPSIS":"546.229","TLE_LINE1":"1 46063U 20055AN  22269.54773263 -.00000880  00000-0 -40226-4 0  9995","COUNTRY_CODE":"US","CLASSIFICATION_TYPE":"U","NORAD_CAT_ID":"46063","FILE":"3584493","EPHEMERIS_TYPE":"0","MEAN_MOTION":"15.06388690","MEAN_MOTION_DDOT":"0.0000000000000","BSTAR":"-0.00004022600000","ECCENTRICITY":"0.00014710","SITE":"AFETR","GP_ID":"213574689","OBJECT_ID":"2020-055AN","ELEMENT_SET_NO":"999","ARG_OF_PERICENTER":"76.6190","MEAN_ELEMENT_THEORY":"SGP4","REF_FRAME":"TEME","INCLINATION":"53.0555","RCS_SIZE":"LARGE","OBJECT_NAME":"STARLINK-1577"},{"MEAN_ELEMENT_THEORY":"SGP4","REF_FRAME":"TEME","RCS_SIZE":"LARGE","INCLINATION":"53.0562","OBJECT_NAME":"STARLINK-1583","SITE":"AFETR","GP_ID":"213419500","OBJECT_ID":"2020-055AP","ELEMENT_SET_NO":"999","ARG_OF_PERICENTER":"72.1582","BSTAR":"0.00006814200000","ECCENTRICITY":"0.00015570","NORAD_CAT_ID":"46064","FILE":"3583229","EPHEMERIS_TYPE":"0","MEAN_MOTION":"15.06399613","MEAN_MOTION_DDOT":"0.0000000000000","CENTER_NAME":"EARTH","PERIAPSIS":"546.136","TLE_LINE1":"1 46064U 20055AP  22268.58569283  .00000734  00000-0  68142-4 0  9997","COUNTRY_CODE":"US","CLASSIFICATION_TYPE":"U","RA_OF_ASC_NODE":"17.9359","APOAPSIS":"548.293","EPOCH":"2022-09-25T14:03:23.860512","REV_AT_EPOCH":"11842","DECAY_DATE":null,"SEMIMAJOR_AXIS":"6925.350","MEAN_MOTION_DOT":"0.00000734","PERIOD":"95.592","TIME_SYSTEM":"UTC","TLE_LINE2":"2 46064  53.0562  17.9359 0001557  72.1582 287.9577 15.06399613118424","MEAN_ANOMALY":"287.9577","LAUNCH_DATE":"2020-08-07","OBJECT_TYPE":"PAYLOAD"},{"DECAY_DATE":null,"REV_AT_EPOCH":"11886","EPOCH":"2022-09-26T12:11:38.747904","SEMIMAJOR_AXIS":"6925.379","PERIOD":"95.593","MEAN_MOTION_DOT":"-0.00001175","TLE_LINE2":"2 46065  53.0589 353.7991 0001806  68.6339 291.4843 15.06389968118860","TIME_SYSTEM":"UTC","LAUNCH_DATE":"2020-08-07","MEAN_ANOMALY":"291.4843","OBJECT_TYPE":"PAYLOAD","CENTER_NAME":"EARTH","TLE_LINE1":"1 46065U 20055AQ  22269.50808736 -.00001175  00000-0 -59987-4 0  9999","PERIAPSIS":"545.994","CLASSIFICATION_TYPE":"U","COUNTRY_CODE":"US","APOAPSIS":"548.495","RA_OF_ASC_NODE":"353.7991","BSTAR":"-0.00005998700000","ECCENTRICITY":"0.00018060","FILE":"3584439","NORAD_CAT_ID":"46065","MEAN_MOTION_DDOT":"0.0000000000000","MEAN_MOTION":"15.06389968","EPHEMERIS_TYPE":"0","MEAN_ELEMENT_THEORY":"SGP4","REF_FRAME":"TEME","INCLINATION":"53.0589","RCS_SIZE":"LARGE","OBJECT_NAME":"STARLINK-1515","GP_ID":"213575034","SITE":"AFETR","OBJECT_ID":"2020-055AQ","ARG_OF_PERICENTER":"68.6339","ELEMENT_SET_NO":"999"},{"APOAPSIS":"548.386","RA_OF_ASC_NODE":"353.1923","CLASSIFICATION_TYPE":"U","COUNTRY_CODE":"US","TLE_LINE1":"1 46066U 20055AR  22269.64540777 -.00001317  00000-0 -69509-4 0  9992","PERIAPSIS":"546.065","CENTER_NAME":"EARTH","OBJECT_TYPE":"PAYLOAD","LAUNCH_DATE":"2020-08-07","MEAN_ANOMALY":"290.7408","TLE_LINE2":"2 46066  53.0567 353.1923 0001676  69.3760 290.7408 15.06396079119385","TIME_SYSTEM":"UTC","PERIOD":"95.592","MEAN_MOTION_DOT":"-0.00001317","SEMIMAJOR_AXIS":"6925.361","DECAY_DATE":null,"EPOCH":"2022-09-26T15:29:23.231328","REV_AT_EPOCH":"11938","ARG_OF_PERICENTER":"69.3760","ELEMENT_SET_NO":"999","OBJECT_ID":"2020-055AR","GP_ID":"213597156","SITE":"AFETR","OBJECT_NAME":"STARLINK-1525","RCS_SIZE":"LARGE","INCLINATION":"53.0567","REF_FRAME":"TEME","MEAN_ELEMENT_THEORY":"SGP4","MEAN_MOTION":"15.06396079","MEAN_MOTION_DDOT":"0.0000000000000","EPHEMERIS_TYPE":"0","NORAD_CAT_ID":"46066","FILE":"3584555","ECCENTRICITY":"0.00016760","BSTAR":"-0.00006950900000"},{"PERIOD":"95.592","MEAN_MOTION_DOT":"-0.00001946","TLE_LINE2":"2 46067  53.0562 353.1594 0001552  62.5227 297.5919 15.06403882119395","TIME_SYSTEM":"UTC","DECAY_DATE":null,"REV_AT_EPOCH":"11939","EPOCH":"2022-09-26T15:33:19.512000","SEMIMAJOR_AXIS":"6925.337","OBJECT_TYPE":"PAYLOAD","LAUNCH_DATE":"2020-08-07","MEAN_ANOMALY":"297.5919","CLASSIFICATION_TYPE":"U","COUNTRY_CODE":"US","CENTER_NAME":"EARTH","TLE_LINE1":"1 46067U 20055AS  22269.64814250 -.00001946  00000-0 -11177-3 0  9998","PERIAPSIS":"546.127","APOAPSIS":"548.276","RA_OF_ASC_NODE":"353.1594","BSTAR":"-0.00011177000000","ECCENTRICITY":"0.00015520","MEAN_MOTION":"15.06403882","MEAN_MOTION_DDOT":"0.0000000000000","EPHEMERIS_TYPE":"0","NORAD_CAT_ID":"46067","FILE":"3584555","INCLINATION":"53.0562","RCS_SIZE":"LARGE","OBJECT_NAME":"STARLINK-1529","MEAN_ELEMENT_THEORY":"SGP4","REF_FRAME":"TEME","OBJECT_ID":"2020-055AS","ARG_OF_PERICENTER":"62.5227","ELEMENT_SET_NO":"999","GP_ID":"213596903","SITE":"AFETR"},{"RA_OF_ASC_NODE":"353.1156","APOAPSIS":"548.409","CENTER_NAME":"EARTH","PERIAPSIS":"546.071","TLE_LINE1":"1 46068U 20055AT  22269.65920708 -.00001815  00000-0 -10299-3 0  9995","COUNTRY_CODE":"US","CLASSIFICATION_TYPE":"U","MEAN_ANOMALY":"311.0869","LAUNCH_DATE":"2020-08-07","OBJECT_TYPE":"PAYLOAD","EPOCH":"2022-09-26T15:49:15.491712","REV_AT_EPOCH":"11939","DECAY_DATE":null,"SEMIMAJOR_AXIS":"6925.375","MEAN_MOTION_DOT":"-0.00001815","PERIOD":"95.593","TIME_SYSTEM":"UTC","TLE_LINE2":"2 46068  53.0566 353.1156 0001688  49.0266 311.0869 15.06391477119399","SITE":"AFETR","GP_ID":"213595656","OBJECT_ID":"2020-055AT","ELEMENT_SET_NO":"999","ARG_OF_PERICENTER":"49.0266","MEAN_ELEMENT_THEORY":"SGP4","REF_FRAME":"TEME","RCS_SIZE":"LARGE","INCLINATION":"53.0566","OBJECT_NAME":"STARLINK-1532","NORAD_CAT_ID":"46068","FILE":"3584555","EPHEMERIS_TYPE":"0","MEAN_MOTION_DDOT":"0.0000000000000","MEAN_MOTION":"15.06391477","BSTAR":"-0.00010299000000","ECCENTRICITY":"0.00016880"},{"MEAN_MOTION_DDOT":"0.0000000000000","MEAN_MOTION":"15.06388824","EPHEMERIS_TYPE":"0","FILE":"3584555","NORAD_CAT_ID":"46069","BSTAR":"-0.00006173100000","ECCENTRICITY":"0.00013900","OBJECT_ID":"2020-055AU","ARG_OF_PERICENTER":"74.3722","ELEMENT_SET_NO":"999","GP_ID":"213595906","SITE":"AFETR","RCS_SIZE":"LARGE","INCLINATION":"53.0559","OBJECT_NAME":"STARLINK-1533","MEAN_ELEMENT_THEORY":"SGP4","REF_FRAME":"TEME","OBJECT_TYPE":"PAYLOAD","LAUNCH_DATE":"2020-08-07","MEAN_ANOMALY":"285.7421","PERIOD":"95.593","MEAN_MOTION_DOT":"-0.00001200","TLE_LINE2":"2 46069  53.0559 352.7587 0001390  74.3722 285.7421 15.06388824119419","TIME_SYSTEM":"UTC","DECAY_DATE":null,"REV_AT_EPOCH":"11941","EPOCH":"2022-09-26T17:47:23.590464","SEMIMAJOR_AXIS":"6925.383","APOAPSIS":"548.210","RA_OF_ASC_NODE":"352.7587","CLASSIFICATION_TYPE":"U","COUNTRY_CODE":"US","CENTER_NAME":"EARTH","TLE_LINE1":"1 46069U 20055AU  22269.74124526 -.00001200  00000-0 -61731-4 0  9996","PERIAPSIS":"546.285"},{"OBJECT_NAME":"STARLINK-1536","INCLINATION":"53.0555","RCS_SIZE":"LARGE","REF_FRAME":"TEME","MEAN_ELEMENT_THEORY":"SGP4","ARG_OF_PERICENTER":"81.4611","ELEMENT_SET_NO":"999","OBJECT_ID":"2020-055AV","GP_ID":"213596657","SITE":"AFETR","ECCENTRICITY":"0.00014750","BSTAR":"-0.00019566000000","MEAN_MOTION_DDOT":"0.0000000000000","MEAN_MOTION":"15.06388808","EPHEMERIS_TYPE":"0","NORAD_CAT_ID":"46070","FILE":"3584555","CLASSIFICATION_TYPE":"U","COUNTRY_CODE":"US","TLE_LINE1":"1 46070U 20055AV  22269.75598882 -.00003194  00000-0 -19566-3 0  9991","PERIAPSIS":"546.226","CENTER_NAME":"EARTH","APOAPSIS":"548.269","RA_OF_ASC_NODE":"352.6892","TLE_LINE2":"2 46070  53.0555 352.6892 0001475  81.4611 278.6546 15.06388808119416","TIME_SYSTEM":"UTC","PERIOD":"95.593","MEAN_MOTION_DOT":"-0.00003194","SEMIMAJOR_AXIS":"6925.383","DECAY_DATE":null,"EPOCH":"2022-09-26T18:08:37.434048","REV_AT_EPOCH":"11941","OBJECT_TYPE":"PAYLOAD","LAUNCH_DATE":"2020-08-07","MEAN_ANOMALY":"278.6546"}];
